STARLINK-35868          
1 66579U 25268Y   25342.91670139 -.01543205  00000+0 -28003-1 0  9993
2 66579  43.0005 143.4537 0001983 262.4106 111.8165 15.51667259  4055
STARLINK-35872          
1 66580U 25268Z   25342.91670139 -.01555423  00000+0 -28247-1 0  9990
2 66580  43.0003 143.4492 0001829 258.2816 117.8676 15.51670573  4051
STARLINK-35744          
1 66581U 25268AA  25342.91670139 -.01550548  00000+0 -28151-1 0  9998
2 66581  43.0004 143.4434 0001927 259.2308 118.8355 15.51667610  4003
STARLINK-35746          
1 66582U 25268AB  25342.91670139 -.01553136  00000+0 -28204-1 0  9994
2 66582  43.0003 143.4385 0001878 259.8066 120.1790 15.51667262  4057
STARLINK-35941          
1 66583U 25268AC  25342.91670139 -.01546447  00000+0 -28073-1 0  9996
2 66583  43.0004 143.4339 0001936 260.9277 120.9756 15.51663029  4057
STARLINK-35939          
1 66584U 25268AD  25342.91670139 -.01542462  00000+0 -27994-1 0  9991
2 66584  43.0005 143.4296 0002024 260.4551 123.3640 15.51661279  4054
STARLINK-35963          
1 66585U 25268AE  25342.91670139 -.01542594  00000+0 -27996-1 0  9990
2 66585  43.0007 143.4246 0001888 268.2197 117.5168 15.51663285  4050
TJS-21                  
1 66586U 25269A   25341.73863598  .00001641  00000+0  32363+1 0  9997
2 66586  63.2904 162.9189 6806665 269.7757  18.6616  2.00608507   335
CZ-3B R/B               
1 66587U 25269B   25341.85911889  .00047793 -48519-7  12817-2 0  9996
2 66587  51.3451 170.7737 7519869 227.8445  38.1645  2.02777724   355
STARLINK-36076          
1 66588U 25270A   25342.91670139 -.01997016  00000+0 -29029-1 0  9998
2 66588  42.9989 215.1598 0001052 255.8121 340.0175 15.58486210  3787
STARLINK-35447          
1 66589U 25270B   25342.91670139 -.01990952  00000+0 -28932-1 0  9993
2 66589  42.9990 215.1501 0001161 259.4824 340.1840 15.58481826  3895
STARLINK-35429          
1 66590U 25270C   25342.91670139 -.01993447  00000+0 -28972-1 0  9991
2 66590  42.9991 215.1552 0001105 260.4543 337.2939 15.58483901  3894
