CCSDS_OMM_VERS = 2.0
CREATION_DATE  = 
ORIGINATOR     = 

OBJECT_NAME    = STARLINK-35868
OBJECT_ID      = 2025-268Y
CENTER_NAME    = EARTH
REF_FRAME      = TEME
TIME_SYSTEM    = UTC
MEAN_ELEMENT_THEORY = SGP/SGP4

EPOCH          = 2025-12-08T22:00:03.000096
MEAN_MOTION    = 15.51667259
ECCENTRICITY   = .00019832
INCLINATION    = 43.0005
RA_OF_ASC_NODE = 143.4537
ARG_OF_PERICENTER = 262.4106
MEAN_ANOMALY   = 111.8165

EPHEMERIS_TYPE = 0
CLASSIFICATION_TYPE = U
NORAD_CAT_ID   = 66579
ELEMENT_SET_NO = 999
REV_AT_EPOCH   = 405
BSTAR          = -.28003322E-1
MEAN_MOTION_DOT = -.1543205E-1
MEAN_MOTION_DDOT = 0

CCSDS_OMM_VERS = 2.0
CREATION_DATE  = 
ORIGINATOR     = 

OBJECT_NAME    = STARLINK-35872
OBJECT_ID      = 2025-268Z
CENTER_NAME    = EARTH
REF_FRAME      = TEME
TIME_SYSTEM    = UTC
MEAN_ELEMENT_THEORY = SGP/SGP4

EPOCH          = 2025-12-08T22:00:03.000096
MEAN_MOTION    = 15.51670573
ECCENTRICITY   = .00018297
INCLINATION    = 43.0003
RA_OF_ASC_NODE = 143.4492
ARG_OF_PERICENTER = 258.2816
MEAN_ANOMALY   = 117.8676

EPHEMERIS_TYPE = 0
CLASSIFICATION_TYPE = U
NORAD_CAT_ID   = 66580
ELEMENT_SET_NO = 999
REV_AT_EPOCH   = 405
BSTAR          = -.28246572E-1
MEAN_MOTION_DOT = -.1555423E-1
MEAN_MOTION_DDOT = 0

CCSDS_OMM_VERS = 2.0
CREATION_DATE  = 
ORIGINATOR     = 

OBJECT_NAME    = STARLINK-35744
OBJECT_ID      = 2025-268AA
CENTER_NAME    = EARTH
REF_FRAME      = TEME
TIME_SYSTEM    = UTC
MEAN_ELEMENT_THEORY = SGP/SGP4

EPOCH          = 2025-12-08T22:00:03.000096
MEAN_MOTION    = 15.51667610
ECCENTRICITY   = .00019278
INCLINATION    = 43.0004
RA_OF_ASC_NODE = 143.4434
ARG_OF_PERICENTER = 259.2308
MEAN_ANOMALY   = 118.8355

EPHEMERIS_TYPE = 0
CLASSIFICATION_TYPE = U
NORAD_CAT_ID   = 66581
ELEMENT_SET_NO = 999
REV_AT_EPOCH   = 400
BSTAR          = -.28150806E-1
MEAN_MOTION_DOT = -.1550548E-1
MEAN_MOTION_DDOT = 0

CCSDS_OMM_VERS = 2.0
CREATION_DATE  = 
ORIGINATOR     = 

OBJECT_NAME    = STARLINK-35746
OBJECT_ID      = 2025-268AB
CENTER_NAME    = EARTH
REF_FRAME      = TEME
TIME_SYSTEM    = UTC
MEAN_ELEMENT_THEORY = SGP/SGP4

EPOCH          = 2025-12-08T22:00:03.000096
MEAN_MOTION    = 15.51667262
ECCENTRICITY   = .00018787
INCLINATION    = 43.0003
RA_OF_ASC_NODE = 143.4385
ARG_OF_PERICENTER = 259.8066
MEAN_ANOMALY   = 120.1790

EPHEMERIS_TYPE = 0
CLASSIFICATION_TYPE = U
NORAD_CAT_ID   = 66582
ELEMENT_SET_NO = 999
REV_AT_EPOCH   = 405
BSTAR          = -.28203576E-1
MEAN_MOTION_DOT = -.1553136E-1
MEAN_MOTION_DDOT = 0

CCSDS_OMM_VERS = 2.0
CREATION_DATE  = 
ORIGINATOR     = 

OBJECT_NAME    = STARLINK-35941
OBJECT_ID      = 2025-268AC
CENTER_NAME    = EARTH
REF_FRAME      = TEME
TIME_SYSTEM    = UTC
MEAN_ELEMENT_THEORY = SGP/SGP4

EPOCH          = 2025-12-08T22:00:03.000096
MEAN_MOTION    = 15.51663029
ECCENTRICITY   = .0001936
INCLINATION    = 43.0004
RA_OF_ASC_NODE = 143.4339
ARG_OF_PERICENTER = 260.9277
MEAN_ANOMALY   = 120.9756

EPHEMERIS_TYPE = 0
CLASSIFICATION_TYPE = U
NORAD_CAT_ID   = 66583
ELEMENT_SET_NO = 999
REV_AT_EPOCH   = 405
BSTAR          = -.2807307E-1
MEAN_MOTION_DOT = -.1546447E-1
MEAN_MOTION_DDOT = 0

CCSDS_OMM_VERS = 2.0
CREATION_DATE  = 
ORIGINATOR     = 

OBJECT_NAME    = STARLINK-35939
OBJECT_ID      = 2025-268AD
CENTER_NAME    = EARTH
REF_FRAME      = TEME
TIME_SYSTEM    = UTC
MEAN_ELEMENT_THEORY = SGP/SGP4

EPOCH          = 2025-12-08T22:00:03.000096
MEAN_MOTION    = 15.51661279
ECCENTRICITY   = .00020245
INCLINATION    = 43.0005
RA_OF_ASC_NODE = 143.4296
ARG_OF_PERICENTER = 260.4551
MEAN_ANOMALY   = 123.3640

EPHEMERIS_TYPE = 0
CLASSIFICATION_TYPE = U
NORAD_CAT_ID   = 66584
ELEMENT_SET_NO = 999
REV_AT_EPOCH   = 405
BSTAR          = -.27994094E-1
MEAN_MOTION_DOT = -.1542462E-1
MEAN_MOTION_DDOT = 0

CCSDS_OMM_VERS = 2.0
CREATION_DATE  = 
ORIGINATOR     = 

OBJECT_NAME    = STARLINK-35963
OBJECT_ID      = 2025-268AE
CENTER_NAME    = EARTH
REF_FRAME      = TEME
TIME_SYSTEM    = UTC
MEAN_ELEMENT_THEORY = SGP/SGP4

EPOCH          = 2025-12-08T22:00:03.000096
MEAN_MOTION    = 15.51663285
ECCENTRICITY   = .00018883
INCLINATION    = 43.0007
RA_OF_ASC_NODE = 143.4246
ARG_OF_PERICENTER = 268.2197
MEAN_ANOMALY   = 117.5168

EPHEMERIS_TYPE = 0
CLASSIFICATION_TYPE = U
NORAD_CAT_ID   = 66585
ELEMENT_SET_NO = 999
REV_AT_EPOCH   = 405
BSTAR          = -.27995961E-1
MEAN_MOTION_DOT = -.1542594E-1
MEAN_MOTION_DDOT = 0

CCSDS_OMM_VERS = 2.0
CREATION_DATE  = 
ORIGINATOR     = 

OBJECT_NAME    = TJS-21
OBJECT_ID      = 2025-269A
CENTER_NAME    = EARTH
REF_FRAME      = TEME
TIME_SYSTEM    = UTC
MEAN_ELEMENT_THEORY = SGP/SGP4

EPOCH          = 2025-12-07T17:43:38.148672
MEAN_MOTION    = 2.00608507
ECCENTRICITY   = .6806665
INCLINATION    = 63.2904
RA_OF_ASC_NODE = 162.9189
ARG_OF_PERICENTER = 269.7757
MEAN_ANOMALY   = 18.6616

EPHEMERIS_TYPE = 0
CLASSIFICATION_TYPE = U
NORAD_CAT_ID   = 66586
ELEMENT_SET_NO = 999
REV_AT_EPOCH   = 33
BSTAR          = .32363E+1
MEAN_MOTION_DOT = .1641E-4
MEAN_MOTION_DDOT = 0

CCSDS_OMM_VERS = 2.0
CREATION_DATE  = 
ORIGINATOR     = 

OBJECT_NAME    = CZ-3B R/B
OBJECT_ID      = 2025-269B
CENTER_NAME    = EARTH
REF_FRAME      = TEME
TIME_SYSTEM    = UTC
MEAN_ELEMENT_THEORY = SGP/SGP4

EPOCH          = 2025-12-07T20:37:07.872096
MEAN_MOTION    = 2.02777724
ECCENTRICITY   = .75198691
INCLINATION    = 51.3451
RA_OF_ASC_NODE = 170.7737
ARG_OF_PERICENTER = 227.8445
MEAN_ANOMALY   = 38.1645

EPHEMERIS_TYPE = 0
CLASSIFICATION_TYPE = U
NORAD_CAT_ID   = 66587
ELEMENT_SET_NO = 999
REV_AT_EPOCH   = 35
BSTAR          = .12817032E-2
MEAN_MOTION_DOT = .47793E-3
MEAN_MOTION_DDOT = -.48519E-7

CCSDS_OMM_VERS = 2.0
CREATION_DATE  = 
ORIGINATOR     = 

OBJECT_NAME    = STARLINK-36076
OBJECT_ID      = 2025-270A
CENTER_NAME    = EARTH
REF_FRAME      = TEME
TIME_SYSTEM    = UTC
MEAN_ELEMENT_THEORY = SGP/SGP4

EPOCH          = 2025-12-08T22:00:03.000096
MEAN_MOTION    = 15.58486210
ECCENTRICITY   = .00010528
INCLINATION    = 42.9989
RA_OF_ASC_NODE = 215.1598
ARG_OF_PERICENTER = 255.8121
MEAN_ANOMALY   = 340.0175

EPHEMERIS_TYPE = 0
CLASSIFICATION_TYPE = U
NORAD_CAT_ID   = 66588
ELEMENT_SET_NO = 999
REV_AT_EPOCH   = 378
BSTAR          = -.29028902E-1
MEAN_MOTION_DOT = -.1997016E-1
MEAN_MOTION_DDOT = 0

CCSDS_OMM_VERS = 2.0
CREATION_DATE  = 
ORIGINATOR     = 

OBJECT_NAME    = STARLINK-35447
OBJECT_ID      = 2025-270B
CENTER_NAME    = EARTH
REF_FRAME      = TEME
TIME_SYSTEM    = UTC
MEAN_ELEMENT_THEORY = SGP/SGP4

EPOCH          = 2025-12-08T22:00:03.000096
MEAN_MOTION    = 15.58481826
ECCENTRICITY   = .00011617
INCLINATION    = 42.9990
RA_OF_ASC_NODE = 215.1501
ARG_OF_PERICENTER = 259.4824
MEAN_ANOMALY   = 340.1840

EPHEMERIS_TYPE = 0
CLASSIFICATION_TYPE = U
NORAD_CAT_ID   = 66589
ELEMENT_SET_NO = 999
REV_AT_EPOCH   = 389
BSTAR          = -.28931818E-1
MEAN_MOTION_DOT = -.1990952E-1
MEAN_MOTION_DDOT = 0

CCSDS_OMM_VERS = 2.0
CREATION_DATE  = 
ORIGINATOR     = 

OBJECT_NAME    = STARLINK-35429
OBJECT_ID      = 2025-270C
CENTER_NAME    = EARTH
REF_FRAME      = TEME
TIME_SYSTEM    = UTC
MEAN_ELEMENT_THEORY = SGP/SGP4

EPOCH          = 2025-12-08T22:00:03.000096
MEAN_MOTION    = 15.58483901
ECCENTRICITY   = .00011058
INCLINATION    = 42.9991
RA_OF_ASC_NODE = 215.1552
ARG_OF_PERICENTER = 260.4543
MEAN_ANOMALY   = 337.2939

EPHEMERIS_TYPE = 0
CLASSIFICATION_TYPE = U
NORAD_CAT_ID   = 66590
ELEMENT_SET_NO = 999
REV_AT_EPOCH   = 389
BSTAR          = -.28971596E-1
MEAN_MOTION_DOT = -.1993447E-1
MEAN_MOTION_DDOT = 0

